[{"CCSDS_OMM_VERS":"2.0","COMMENT":"GENERATED VIA SPACE-TRACK.ORG API","CREATION_DATE":"2004-08-15T23:36:23","ORIGINATOR":"18 SPCS","OBJECT_NAME":"SCOUT B DEB","OBJECT_ID":"1967-120E","CENTER_NAME":"EARTH","REF_FRAME":"TEME","TIME_SYSTEM":"UTC","MEAN_ELEMENT_THEORY":"SGP4","EPOCH":"1968-03-16T16:11:00.479039","MEAN_MOTION":"15.99103149","ECCENTRICITY":"0.00060820","INCLINATION":"90.7073","RA_OF_ASC_NODE":"159.1982","ARG_OF_PERICENTER":"255.1672","MEAN_ANOMALY":"104.8820","EPHEMERIS_TYPE":"0","CLASSIFICATION_TYPE":"U","NORAD_CAT_ID":"3062","ELEMENT_SET_NO":"999","REV_AT_EPOCH":"1603","BSTAR":"0.00000000000000","MEAN_MOTION_DOT":"0.00877159","MEAN_MOTION_DDOT":"0.0000000000000","SEMIMAJOR_AXIS":"6655.047","PERIOD":"90.050","APOAPSIS":"280.959","PERIAPSIS":"272.864","OBJECT_TYPE":"DEBRIS","RCS_SIZE":null,"COUNTRY_CODE":null,"LAUNCH_DATE":null,"SITE":null,"DECAY_DATE":"1968-03-27","FILE":"33926","GP_ID":"8784358","TLE_LINE0":"0 SCOUT B DEB","TLE_LINE1":"1 03062U 67120  E 68076.67431110  .00877159 +00000-0 +00000-0 0  9994","TLE_LINE2":"2 03062 090.7073 159.1982 0006082 255.1672 104.8820 15.99103149016033"},{"CCSDS_OMM_VERS":"2.0","COMMENT":"GENERATED VIA SPACE-TRACK.ORG API","CREATION_DATE":"2004-08-15T23:36:23","ORIGINATOR":"18 SPCS","OBJECT_NAME":"OPS 1965 DEB","OBJECT_ID":"1968-004C","CENTER_NAME":"EARTH","REF_FRAME":"TEME","TIME_SYSTEM":"UTC","MEAN_ELEMENT_THEORY":"SGP4","EPOCH":"1968-03-18T19:20:40.089120","MEAN_MOTION":"15.85643124","ECCENTRICITY":"0.00094060","INCLINATION":"75.2287","RA_OF_ASC_NODE":"215.3202","ARG_OF_PERICENTER":"311.8653","MEAN_ANOMALY":"48.1663","EPHEMERIS_TYPE":"0","CLASSIFICATION_TYPE":"U","NORAD_CAT_ID":"3116","ELEMENT_SET_NO":"999","REV_AT_EPOCH":"946","BSTAR":"0.00000000000000","MEAN_MOTION_DOT":"0.02364708","MEAN_MOTION_DDOT":"0.0000000000000","SEMIMAJOR_AXIS":"6692.655","PERIOD":"90.814","APOAPSIS":"320.815","PERIAPSIS":"308.225","OBJECT_TYPE":"DEBRIS","RCS_SIZE":null,"COUNTRY_CODE":null,"LAUNCH_DATE":null,"SITE":null,"DECAY_DATE":"1968-03-22","FILE":"33926","GP_ID":"8785333","TLE_LINE0":"0 OPS 1965 DEB","TLE_LINE1":"1 03116U 68004  C 68078.80601955  .02364708 +00000-0 +00000-0 0  9992","TLE_LINE2":"2 03116 075.2287 215.3202 0009406 311.8653 048.1663 15.85643124009461"},{"CCSDS_OMM_VERS":"2.0","COMMENT":"GENERATED VIA SPACE-TRACK.ORG API","CREATION_DATE":"2004-08-15T23:36:23","ORIGINATOR":"18 SPCS","OBJECT_NAME":"OPS 1965 DEB","OBJECT_ID":"1968-004B","CENTER_NAME":"EARTH","REF_FRAME":"TEME","TIME_SYSTEM":"UTC","MEAN_ELEMENT_THEORY":"SGP4","EPOCH":"1968-03-19T23:33:33.846336","MEAN_MOTION":"15.73271124","ECCENTRICITY":"0.00264260","INCLINATION":"75.0952","RA_OF_ASC_NODE":"213.2090","ARG_OF_PERICENTER":"20.1773","MEAN_ANOMALY":"340.0506","EPHEMERIS_TYPE":"0","CLASSIFICATION_TYPE":"U","NORAD_CAT_ID":"3101","ELEMENT_SET_NO":"999","REV_AT_EPOCH":"963","BSTAR":"0.00000000000000","MEAN_MOTION_DOT":"0.01108118","MEAN_MOTION_DDOT":"0.0000000000000","SEMIMAJOR_AXIS":"6727.696","PERIOD":"91.529","APOAPSIS":"367.340","PERIAPSIS":"331.783","OBJECT_TYPE":"DEBRIS","RCS_SIZE":null,"COUNTRY_CODE":null,"LAUNCH_DATE":null,"SITE":null,"DECAY_DATE":"1968-03-29","FILE":"33926","GP_ID":"8784963","TLE_LINE0":"0 OPS 1965 DEB","TLE_LINE1":"1 03101U 68004  B 68079.98164174  .01108118 +00000-0 +00000-0 0  9993","TLE_LINE2":"2 03101 075.0952 213.2090 0026426 020.1773 340.0506 15.73271124009631"},{"CCSDS_OMM_VERS":"2.0","COMMENT":"GENERATED VIA SPACE-TRACK.ORG API","CREATION_DATE":"2004-08-15T23:36:23","ORIGINATOR":"18 SPCS","OBJECT_NAME":"SL-8 DEB","OBJECT_ID":"1965-112F","CENTER_NAME":"EARTH","REF_FRAME":"TEME","TIME_SYSTEM":"UTC","MEAN_ELEMENT_THEORY":"SGP4","EPOCH":"1968-03-23T14:44:20.683392","MEAN_MOTION":"15.49589737","ECCENTRICITY":"0.00167900","INCLINATION":"55.9370","RA_OF_ASC_NODE":"162.2337","ARG_OF_PERICENTER":"176.7011","MEAN_ANOMALY":"183.4047","EPHEMERIS_TYPE":"0","CLASSIFICATION_TYPE":"U","NORAD_CAT_ID":"1874","ELEMENT_SET_NO":"999","REV_AT_EPOCH":"12261","BSTAR":"0.00000000000000","MEAN_MOTION_DOT":"0.00252431","MEAN_MOTION_DDOT":"0.0000000000000","SEMIMAJOR_AXIS":"6796.066","PERIOD":"92.927","APOAPSIS":"429.342","PERIAPSIS":"406.521","OBJECT_TYPE":"DEBRIS","RCS_SIZE":null,"COUNTRY_CODE":null,"LAUNCH_DATE":null,"SITE":null,"DECAY_DATE":"1968-05-01","FILE":"33926","GP_ID":"8775341","TLE_LINE0":"0 SL-8 DEB","TLE_LINE1":"1 01874U 65112  F 68083.61412828  .00252431 +00000-0 +00000-0 0  9999","TLE_LINE2":"2 01874 055.9370 162.2337 0016790 176.7011 183.4047 15.49589737122618"},{"CCSDS_OMM_VERS":"2.0","COMMENT":"GENERATED VIA SPACE-TRACK.ORG API","CREATION_DATE":"2004-08-15T23:36:23","ORIGINATOR":"18 SPCS","OBJECT_NAME":"COSMOS 209 DEB","OBJECT_ID":"1968-023D","CENTER_NAME":"EARTH","REF_FRAME":"TEME","TIME_SYSTEM":"UTC","MEAN_ELEMENT_THEORY":"SGP4","EPOCH":"1968-03-23T19:44:22.282367","MEAN_MOTION":"16.01414287","ECCENTRICITY":"0.00559630","INCLINATION":"65.0360","RA_OF_ASC_NODE":"352.4003","ARG_OF_PERICENTER":"130.2699","MEAN_ANOMALY":"230.3393","EPHEMERIS_TYPE":"0","CLASSIFICATION_TYPE":"U","NORAD_CAT_ID":"3160","ELEMENT_SET_NO":"999","REV_AT_EPOCH":"23","BSTAR":"0.00000000000000","MEAN_MOTION_DOT":"0.01811369","MEAN_MOTION_DDOT":"0.0000000000000","SEMIMAJOR_AXIS":"6648.642","PERIOD":"89.920","APOAPSIS":"307.715","PERIAPSIS":"233.299","OBJECT_TYPE":"DEBRIS","RCS_SIZE":null,"COUNTRY_CODE":null,"LAUNCH_DATE":null,"SITE":null,"DECAY_DATE":"1968-03-29","FILE":"33926","GP_ID":"8786056","TLE_LINE0":"0 COSMOS 209 DEB","TLE_LINE1":"1 03160U 68023  D 68083.82248012  .01811369 +00000-0 +00000-0 0  9990","TLE_LINE2":"2 03160 065.0360 352.4003 0055963 130.2699 230.3393 16.01414287000239"},{"CCSDS_OMM_VERS":"2.0","COMMENT":"GENERATED VIA SPACE-TRACK.ORG API","CREATION_DATE":"2004-08-15T23:36:23","ORIGINATOR":"18 SPCS","OBJECT_NAME":"SL-8 DEB","OBJECT_ID":"1968-006D","CENTER_NAME":"EARTH","REF_FRAME":"TEME","TIME_SYSTEM":"UTC","MEAN_ELEMENT_THEORY":"SGP4","EPOCH":"1968-03-25T05:04:02.620416","MEAN_MOTION":"15.60797695","ECCENTRICITY":"0.00033620","INCLINATION":"74.0310","RA_OF_ASC_NODE":"317.3573","ARG_OF_PERICENTER":"250.1544","MEAN_ANOMALY":"109.9196","EPHEMERIS_TYPE":"0","CLASSIFICATION_TYPE":"U","NORAD_CAT_ID":"3104","ELEMENT_SET_NO":"999","REV_AT_EPOCH":"999","BSTAR":"0.00000000000000","MEAN_MOTION_DOT":"0.00932037","MEAN_MOTION_DDOT":"0.0000000000000","SEMIMAJOR_AXIS":"6763.492","PERIOD":"92.260","APOAPSIS":"387.631","PERIAPSIS":"383.084","OBJECT_TYPE":"DEBRIS","RCS_SIZE":null,"COUNTRY_CODE":null,"LAUNCH_DATE":null,"SITE":null,"DECAY_DATE":"1968-04-06","FILE":"33926","GP_ID":"8785068","TLE_LINE0":"0 SL-8 DEB","TLE_LINE1":"1 03104U 68006  D 68085.21114144  .00932037 +00000-0 +00000-0 0  9997","TLE_LINE2":"2 03104 074.0310 317.3573 0003362 250.1544 109.9196 15.60797695009996"},{"CCSDS_OMM_VERS":"2.0","COMMENT":"GENERATED VIA SPACE-TRACK.ORG API","CREATION_DATE":"2004-08-15T23:36:23","ORIGINATOR":"18 SPCS","OBJECT_NAME":"COSMOS 209 DEB (ANTENNA)","OBJECT_ID":"1968-023B","CENTER_NAME":"EARTH","REF_FRAME":"TEME","TIME_SYSTEM":"UTC","MEAN_ELEMENT_THEORY":"SGP4","EPOCH":"1968-03-25T10:15:24.350688","MEAN_MOTION":"16.28622208","ECCENTRICITY":"0.00184640","INCLINATION":"65.0834","RA_OF_ASC_NODE":"346.4642","ARG_OF_PERICENTER":"225.8698","MEAN_ANOMALY":"134.0853","EPHEMERIS_TYPE":"0","CLASSIFICATION_TYPE":"U","NORAD_CAT_ID":"3161","ELEMENT_SET_NO":"999","REV_AT_EPOCH":"49","BSTAR":"0.00000000000000","MEAN_MOTION_DOT":"0.08071801","MEAN_MOTION_DDOT":"0.0000000000000","SEMIMAJOR_AXIS":"6574.386","PERIOD":"88.418","APOAPSIS":"208.390","PERIAPSIS":"184.112","OBJECT_TYPE":"DEBRIS","RCS_SIZE":null,"COUNTRY_CODE":null,"LAUNCH_DATE":null,"SITE":null,"DECAY_DATE":"1968-03-25","FILE":"33926","GP_ID":"8786060","TLE_LINE0":"0 COSMOS 209 DEB (ANTENNA)","TLE_LINE1":"1 03161U 68023  B 68085.42736517  .08071801 +00000-0 +00000-0 0  9997","TLE_LINE2":"2 03161 065.0834 346.4642 0018464 225.8698 134.0853 16.28622208000495"},{"CCSDS_OMM_VERS":"2.0","COMMENT":"GENERATED VIA SPACE-TRACK.ORG API","CREATION_DATE":"2004-08-15T23:36:23","ORIGINATOR":"18 SPCS","OBJECT_NAME":"COSMOS 176 DEB","OBJECT_ID":"1967-086G","CENTER_NAME":"EARTH","REF_FRAME":"TEME","TIME_SYSTEM":"UTC","MEAN_ELEMENT_THEORY":"SGP4","EPOCH":"1968-03-26T23:43:57.515232","MEAN_MOTION":"15.70152020","ECCENTRICITY":"0.01449640","INCLINATION":"81.6632","RA_OF_ASC_NODE":"76.0078","ARG_OF_PERICENTER":"184.3286","MEAN_ANOMALY":"175.6612","EPHEMERIS_TYPE":"0","CLASSIFICATION_TYPE":"U","NORAD_CAT_ID":"2959","ELEMENT_SET_NO":"999","REV_AT_EPOCH":"2863","BSTAR":"0.00000000000000","MEAN_MOTION_DOT":"0.03186930","MEAN_MOTION_DDOT":"0.0000000000000","SEMIMAJOR_AXIS":"6736.603","PERIOD":"91.710","APOAPSIS":"456.124","PERIAPSIS":"260.811","OBJECT_TYPE":"DEBRIS","RCS_SIZE":null,"COUNTRY_CODE":null,"LAUNCH_DATE":null,"SITE":null,"DECAY_DATE":"1968-04-02","FILE":"33926","GP_ID":"8783138","TLE_LINE0":"0 COSMOS 176 DEB","TLE_LINE1":"1 02959U 67086  G 68086.98886013  .03186930 +00000-0 +00000-0 0  9993","TLE_LINE2":"2 02959 081.6632 076.0078 0144964 184.3286 175.6612 15.70152020028631"}]